AEROCUBE 12A            
1 43556U 18046C   19224.82409741  .00000682  00000-0  36601-4 0  9991
2 43556  51.6421 152.1694 0007812 267.6506  92.3579 15.28818641 59993
AEROCUBE 12B            
1 43557U 18046D   19224.84240728 -.00000143  00000-0  76171-5 0  9992
2 43557  51.6426 152.2874 0007816 268.3037  91.7048 15.28680558 59944
UITMSAT-1               
1 43589U 98067PD  19225.38592599  .00009217  00000-0  10584-3 0  9998
2 43589  51.6360  61.7263 0004953   8.7933 351.3148 15.62851297 57450
MAYA-1                  
1 43590U 98067PE  19224.93276098  .00009877  00000-0  11294-3 0  9994
2 43590  51.6359  63.9547 0005096   6.8425 353.2638 15.62861806 57310
BHUTAN-1                
1 43591U 98067PF  19225.04927681  .00010092  00000-0  11500-3 0  9990
2 43591  51.6375  63.2592 0005228   8.2231 351.8848 15.62922957 57334
SIRIUSSAT-1             
1 43595U 98067PG  19225.51290112  .00008834  00000-0  10485-3 0  9990
2 43595  51.6364  62.5794 0002842 326.1308  33.9504 15.62054367 56560
SIRIUSSAT-2             
1 43596U 98067PH  19224.46125696  .00008871  00000-0  10601-3 0  9999
2 43596  51.6377  68.3466 0003336 322.3930  37.6831 15.61869456 56390
TANUSHA-3               
1 43597U 98067PJ  19224.46496082  .00012217  00000-0  13398-3 0  9995
2 43597  51.6358  66.0511 0002893 339.2801  20.8076 15.63682202 56420
SURFSAT                 
1 43614U 18070B   19224.72162097  .00001736  00000-0  46876-4 0  9998
2 43614  93.0248  26.3660 0018666  93.1976 267.1413 15.37701564 50863
CP7 (DAVE)              
1 43615U 18070C   19224.47000055  .00001546  00000-0  41876-4 0  9990
2 43615  93.0251  26.2625 0018761  93.5960 266.7439 15.37611611 50823
ELFIN-B                 
1 43616U 18070D   19224.51977244  .00002339  00000-0  61818-4 0  9998
2 43616  93.0213  26.1925 0019571  96.6010 263.7472 15.38309029 50848
ELFIN-A                 
1 43617U 18070E   19224.77222571  .00002395  00000-0  63250-4 0  9997
2 43617  93.0268  26.5546 0018778  93.1933 267.1470 15.38355071 50884
CUBEBEL-1 (BSUSAT-1)    
1 43666U 18083E   19225.54435034  .00000805  00000-0  43313-4 0  9993
2 43666  97.5190 249.6366 0015205   0.7909 151.0192 15.17660146 43757
DEBRISSAT-2             
1 43680U 98067PR  19224.16072985  .00015624  00000-0  16263-3 0  9996
2 43680  51.6366  67.0628 0002642 357.4684   2.6297 15.64767246 65117
CICERO 10               
1 43690U 18088A   19224.41169145  .00000466  00000-0  19875-4 0  9996
2 43690  85.0374 282.4858 0015512  16.2914 343.8822 15.19723536 41642
IRVINE01                
1 43693U 18088D   19224.40203900  .00001353  00000-0  58087-4 0  9990
2 43693  85.0349 281.9856 0018070 359.9469   0.1767 15.21536890 41686
PROXIMA I               
1 43694U 18088E   19224.42748585  .00000541  00000-0  22170-4 0  9998
2 43694  85.0317 281.7830 0018847 350.3725   9.7152 15.21445385 41696
PROXIMA II              
1 43696U 18088G   19224.42644869  .00000538  00000-0  22047-4 0  9999
2 43696  85.0318 281.7849 0018877 350.2955   9.7919 15.21450138 41699
FACSAT-1                
1 43721U 18096C   19225.45996447  .00000904  00000-0  37434-4 0  9996
2 43721  97.4566 295.2288 0019293 130.2273 230.0657 15.26397176 39242
CENTAURI-2              
1 43722U 18096D   19225.43223935  .00001141  00000-0  46161-4 0  9991
2 43722  97.4568 295.2667 0019479 130.8822 229.4108 15.26635858 39232
INNOSAT-2               
1 43738U 18096V   19225.41524244  .00001695  00000-0  62702-4 0  9996
2 43738  97.4573 296.0577 0025540 142.0974 218.2070 15.28825545 39299
SIRION PATHFINDER-2     
1 43759U 18099B   19225.46740237  .00000191  00000-0  22632-4 0  9997
2 43759  97.7420 296.7610 0015524 131.2162 229.0399 14.95144965 37757
CORVUS-BC 4             
1 43767U 18099K   19224.82474533  .00000265  00000-0  29792-4 0  9994
2 43767  97.7409 295.8650 0012952 134.9679 225.2594 14.94590538 37656
MOVE-II                 
1 43780U 18099Y   19225.42069440  .00000637  00000-0  63282-4 0  9998
2 43780  97.7417 296.6254 0014736 141.3597 218.8681 14.95094644 37734
SPACEBEE-7              
1 43816U 18099BL  19224.42203939  .00000597  00000-0  59120-4 0  9991
2 43816  97.7432 295.8261 0014833 130.4743 229.7773 14.95440259 37156
SPACEBEE-5              
1 43817U 18099BM  19225.13489544  .00000719  00000-0  69678-4 0  9994
2 43817  97.7449 296.6231 0014731 129.8387 230.4132 14.95702921 37261
SPACEBEE-6              
1 43818U 18099BN  19225.15014384  .00000806  00000-0  77836-4 0  9995
2 43818  97.7437 296.5755 0014876 128.5420 231.7137 14.95526062 37419
SHIELDS 1               
1 43850U 18104B   19224.84124253  .00000042  00000-0  00000+0 0  9996
2 43850  85.0266  19.9967 0017018 122.4366 237.8533 15.21112956 36408
STF-1                   
1 43852U 18104D   19224.46850528  .00000041  00000-0  00000+0 0  9996
2 43852  85.0317  20.5220 0016167 135.7031 224.5550 15.20672150 36337
ZACUBE-2                
1 43907U 18111AH  19225.54426309  .00000283  00000-0  14390-4 0  9991
2 43907  97.2851 129.2370 0022480 150.2777 209.9743 15.24226882 34951
LUME 1                  
1 43908U 18111AJ  19224.54674203  .00000562  00000-0  25630-4 0  9998
2 43908  97.2852 128.2948 0022291 153.7494 206.4879 15.24401686 34800
AOBA VELOX-IV           
1 43940U 19003J   19225.43854123  .00001191  00000-0  51856-4 0  9993
2 43940  97.2737 281.6918 0023220 233.1632 255.3601 15.23932268 31570
CATSAT-2                
1 44029U 98067PV  19224.23935438  .00006278  00000-0  91504-4 0  9990
2 44029  51.6396  78.1280 0004692 359.8470   0.2520 15.57144154 30070
DELPHINI                
1 44030U 98067PW  19225.44771767  .00007072  00000-0  10148-3 0  9996
2 44030  51.6384  71.9329 0004297   2.0996 358.0014 15.57341455 30238
UNITE                   
1 44031U 98067PX  19225.00642380  .00004526  00000-0  70243-4 0  9991
2 44031  51.6394  74.9895 0003098   0.3219 359.7774 15.56181400 30151
TECHEDSAT 8             
1 44032U 98067PY  19224.16311904  .00016538  00000-0  19496-3 0  9991
2 44032  51.6382  75.3555 0002810 357.5813   2.5167 15.61506556 30052
CATSAT-1                
1 44033U 98067PZ  19225.45855444  .00007516  00000-0  10804-3 0  9997
2 44033  51.6399  72.0211 0004540   5.1292 354.9745 15.57183630 30171
RAAVANA-1               
1 44329U 98067QE  19225.46808125  .00004283  00000-0  76096-4 0  9994
2 44329  51.6413  76.5789 0006616 291.8886  68.1400 15.52507465  8925
UGUISU                  
1 44330U 98067QF  19225.01885758  .00004487  00000-0  79478-4 0  9997
2 44330  51.6413  78.8284 0006602 288.6326  71.3947 15.52465234  8839
NEPALISAT-1             
1 44331U 98067QG  19225.01621614  .00004475  00000-0  79095-4 0  9999
2 44331  51.6415  78.8113 0006635 291.4369  68.5913 15.52538582  8847
SPOOQY-1                
1 44332U 98067QH  19225.46544136  .00004259  00000-0  75533-4 0  9995
2 44332  51.6413  76.5602 0005402 295.6034  64.4397 15.52578751  8876
SPACEBEE-9              
1 44370U 19037F   19225.51114119 -.00000349  00000-0  00000+0 0  9996
2 44370  45.0137  37.4831 0016082 169.7365 190.4086 15.39374549  6936
SPACEBEE-8              
1 44371U 19037G   19225.50583228 -.00000352  00000-0  00000+0 0  9991
2 44371  45.0131  37.4509 0017606 174.5682 185.6082 15.39699127  6925
MOVE-IIB                
1 44398U 19038N   19224.82727797  .00000673  00000-0  43113-4 0  9998
2 44398  97.4917 186.0244 0027173 112.3034 248.1081 15.11610706  5799
SONATE                  
1 44400U 19038Q   19224.89231180  .00000288  00000-0  20617-4 0  9991
2 44400  97.4928 186.0889 0026972 110.5870 249.8258 15.11640832  5803
LUCKY-7                 
1 44406U 19038W   19224.55670277  .00000326  00000-0  22707-4 0  9999
2 44406  97.4927 185.7703 0026449 111.6283 248.7768 15.11826413  5746
BEESAT 9                
1 44412U 19038AC  19224.69049407  .00000475  00000-0  31410-4 0  9992
2 44412  97.4926 185.8978 0024535 116.4751 243.9000 15.11775617  5468
JAISAT-1                
1 44419U 19038F   19224.87642907  .00000383  00000-0  25742-4 0  9992
2 44419  97.4928 186.1099 0023370 115.7458 244.6188 15.12271444  5800
SWIATOWID               
1 44426U 98067QL  19212.29025139  .00007759  00000-0  13470-3 0  9992
2 44426  51.6418 142.3186 0004100 190.7885 169.3018 15.51868425  4350
KRAKSAT                 
1 44427U 98067QM  19225.44006624  .00003632  00000-0  67183-4 0  9999
2 44427  51.6444  76.9972 0002959 238.9783 185.7308 15.51849312  6436
VCC A                   
1 44428U 98067QN  19224.19989200  .00004113  00000-0  74491-4 0  9996
2 44428  51.6426  83.1119 0002736 258.3800 101.6883 15.52073213  6243
ENTRYSAT                
1 44429U 98067QP  19224.19891240  .00004778  00000-0  85102-4 0  9991
2 44429  51.6424  83.1054 0002597 247.6816 112.3898 15.52140781  6243
VCC C                   
1 44430U 98067QQ  19224.97262109  .00005560  00000-0  97969-4 0  9999
2 44430  51.6426  79.2687 0002795 261.0850  98.9823 15.52086289  5184
VCC B                   
1 44431U 98067QR  19223.87871296  .00004861  00000-0  86730-4 0  9998
2 44431  51.6424  84.7167 0002915 255.4497 104.6170 15.52044399  6137
